IRIDIUM 126             
1 42809U 17039G   24362.83803936  .00000221  00000+0  71814-4 0  9999
2 42809  86.3978 217.7418 0001866  81.0570 279.0837 14.34218126393078
IRIDIUM 124             
1 42810U 17039H   24362.77835215  .00001193  00000+0  34852-3 0  9998
2 42810  86.4517 154.6108 0002026 106.0399 254.1025 14.43281307397743
IRIDIUM 128             
1 42811U 17039J   24363.38692934  .00000028  00000+0  28130-5 0  9996
2 42811  86.3964 249.0199 0001806  89.6330 270.5073 14.34216875393181
IRIDIUM 121             
1 42812U 17039K   24362.85706955  .00000123  00000+0  36948-4 0  9998
2 42812  86.3980 217.7581 0002102  91.5236 268.6200 14.34216767392958
IRIDIUM 133             
1 42955U 17061A   24362.93026198  .00000102  00000+0  29538-4 0  9998
2 42955  86.3967 249.3150 0002013  84.3342 275.8084 14.34218044377912
IRIDIUM 100             
1 42956U 17061B   24362.92391993  .00000048  00000+0  10083-4 0  9990
2 42956  86.3967 249.2490 0001812  85.6516 274.4887 14.34217189377917
IRIDIUM 122             
1 42957U 17061C   24363.45035145  .00000648  00000+0  22445-3 0  9994
2 42957  86.3962 249.0280 0001787  78.5745 281.5652 14.34214555377995
IRIDIUM 129             
1 42958U 17061D   24362.77803970  .00000033  00000+0  48772-5 0  9999
2 42958  86.3969 249.3702 0002271  75.8225 284.3223 14.34215369377918
